{"fetched_at":"2026-07-13T18:17:10.927Z","source":"https://celestrak.org/NORAD/elements/gp.php?NAME=PLEIADES&FORMAT=JSON","constellation":"pleiades","records":[{"OBJECT_NAME":"PLEIADES 1A","OBJECT_ID":"2011-076F","EPOCH":"2026-07-13T08:01:09.784128","CLASSIFICATION_TYPE":"U","MEAN_MOTION":14.58545812,"ECCENTRICITY":0.00017024,"INCLINATION":98.1975,"RA_OF_ASC_NODE":269.0845,"ARG_OF_PERICENTER":81.2626,"MEAN_ANOMALY":353.4162,"EPHEMERIS_TYPE":0,"NORAD_CAT_ID":38012,"ELEMENT_SET_NO":999,"REV_AT_EPOCH":77580,"BSTAR":0.000003990382,"MEAN_MOTION_DOT":-2.7e-7,"MEAN_MOTION_DDOT":0},{"OBJECT_NAME":"PLEIADES 1B","OBJECT_ID":"2012-068A","EPOCH":"2026-07-13T06:50:48.661152","CLASSIFICATION_TYPE":"U","MEAN_MOTION":14.58533308,"ECCENTRICITY":0.000159,"INCLINATION":98.1946,"RA_OF_ASC_NODE":268.9764,"ARG_OF_PERICENTER":80.4663,"MEAN_ANOMALY":279.6716,"EPHEMERIS_TYPE":0,"NORAD_CAT_ID":39019,"ELEMENT_SET_NO":999,"REV_AT_EPOCH":72465,"BSTAR":0.000004952046,"MEAN_MOTION_DOT":-2.3e-7,"MEAN_MOTION_DDOT":0}]}
